LANDSAT 9               
1 49260U 21088A   23230.10237756  .00000540  00000+0  12981-3 0  9993
2 49260  98.2261 299.2428 0001500 106.0097 254.1267 14.57117710100402
